{"type":"FeatureCollection","features":[{"type":"Feature","id":"output_centroids.fid-7791bc_1a009ce0210_-7087","geometry":{"type":"Point","coordinates":[-112.5152308294,45.6967458151]},"geometry_name":"centroid_geom","properties":{"country":"United States of America","id":1,"most_common_rank":"PLATINUM I","most_used_character":"GAME_AND_WATCH"}},{"type":"Feature","id":"output_centroids.fid-7791bc_1a009ce0210_-7086","geometry":{"type":"Point","coordinates":[-53.095427264,-10.7748158078]},"geometry_name":"centroid_geom","properties":{"country":"Brazil","id":2,"most_common_rank":"SILVER III","most_used_character":"FALCO"}},{"type":"Feature","id":"output_centroids.fid-7791bc_1a009ce0210_-7085","geometry":{"type":"Point","coordinates":[-66.1571356275,7.1208632149]},"geometry_name":"centroid_geom","properties":{"country":"Venezuela","id":3,"most_common_rank":"GOLD III","most_used_character":"FALCO"}},{"type":"Feature","id":"output_centroids.fid-7791bc_1a009ce0210_-7084","geometry":{"type":"Point","coordinates":[-73.0677606284,3.8984655726]},"geometry_name":"centroid_geom","properties":{"country":"Colombia","id":4,"most_common_rank":"ALL PENDING","most_used_character":"CAPTAIN_FALCON"}},{"type":"Feature","id":"output_centroids.fid-7791bc_1a009ce0210_-7083","geometry":{"type":"Point","coordinates":[-64.6622407251,-16.7126099446]},"geometry_name":"centroid_geom","properties":{"country":"Bolivia","id":5,"most_common_rank":"SILVER I","most_used_character":"FALCO"}},{"type":"Feature","id":"output_centroids.fid-7791bc_1a009ce0210_-7082","geometry":{"type":"Point","coordinates":[-78.7647479896,-1.4233259935]},"geometry_name":"centroid_geom","properties":{"country":"Ecuador","id":6,"most_common_rank":"GOLD I","most_used_character":"CAPTAIN_FALCON"}},{"type":"Feature","id":"output_centroids.fid-7791bc_1a009ce0210_-7081","geometry":{"type":"Point","coordinates":[-74.3576710344,-9.1714759471]},"geometry_name":"centroid_geom","properties":{"country":"Peru","id":7,"most_common_rank":"SILVER II","most_used_character":"CAPTAIN_FALCON"}},{"type":"Feature","id":"output_centroids.fid-7791bc_1a009ce0210_-7080","geometry":{"type":"Point","coordinates":[-71.3737271446,-37.9607679992]},"geometry_name":"centroid_geom","properties":{"country":"Chile","id":8,"most_common_rank":"SILVER II","most_used_character":"FALCO"}},{"type":"Feature","id":"output_centroids.fid-7791bc_1a009ce0210_-707f","geometry":{"type":"Point","coordinates":[-56.0166086946,-32.7934307626]},"geometry_name":"centroid_geom","properties":{"country":"Uruguay","id":9,"most_common_rank":"PLATINUM II","most_used_character":"DONKEY_KONG"}},{"type":"Feature","id":"output_centroids.fid-7791bc_1a009ce0210_-707e","geometry":{"type":"Point","coordinates":[-65.1376504709,-35.4806177904]},"geometry_name":"centroid_geom","properties":{"country":"Argentina","id":10,"most_common_rank":"GOLD I","most_used_character":"FALCO"}}],"totalFeatures":10,"numberMatched":10,"numberReturned":10,"timeStamp":"2026-08-19T03:01:21.560Z","crs":{"type":"name","properties":{"name":"urn:ogc:def:crs:EPSG::4326"}}}